HYPSO-1                 
1 51053U 22002BX  23161.70570009  .00006512  00000+0  32670-3 0  9995
2 51053  97.4328 226.6243 0006275 271.1314  88.9201 15.17644633 77645
LEMUR-2-MIRIWARI        
1 51054U 22002BY  23161.45053848  .00019783  00000+0  79708-3 0  9992
2 51054  97.4400 228.6867 0005307 255.2352 104.8298 15.24871900 77721
FLOCK 4X-24             
1 51056U 22002CA  23161.63264361  .00010280  00000+0  37656-3 0  9997
2 51056  97.4355 229.8535 0005233 246.4965 113.5725 15.28196769 77838
KEPLER-16 (ASTRAEUS)    
1 51057U 22002CB  23161.42917628  .00009124  00000+0  40484-3 0  9994
2 51057  97.4381 228.0624 0005035 250.6817 109.3874 15.21790362 77695
LEMUR-2-DJIRANG         
1 51058U 22002CC  23161.45144735  .00020140  00000+0  81172-3 0  9999
2 51058  97.4374 228.5439 0005242 253.8899 106.1762 15.24857776 77723
KEPLER-17 (KARINA)      
1 51059U 22002CD  23161.13394303  .00009228  00000+0  39790-3 0  9996
2 51059  97.4406 228.0015 0004730 281.7665  78.3041 15.22766240 77652
ETV-A1                  
1 51060U 22002CE  23161.75923286  .00004461  00000+0  23669-3 0  9996
2 51060  97.4405 226.6394 0007607 282.8553  77.1830 15.15832175 77613
BRO-5                   
1 51061U 22002CF  23161.75054158  .00003968  00000+0  20481-3 0  9990
2 51061  97.4441 227.2809 0007455 286.0959  73.9454 15.16876801 77643
TEVEL-7                 
1 51062U 22002CG  23161.76822645  .00017200  00000+0  69507-3 0  9992
2 51062  97.4342 228.8101 0006603 245.8417 114.2130 15.24794125 77784
TEVEL-4                 
1 51063U 22002CH  23161.64283465  .00017366  00000+0  70288-3 0  9992
2 51063  97.4342 228.6698 0006570 246.3773 113.6775 15.24739023 77760
FLOCK 4X-4              
1 51064U 22002CJ  23161.41358050  .00012791  00000+0  46758-3 0  9993
2 51064  97.4363 229.7077 0006085 246.4185 113.6415 15.28201004 77809
FLOCK 4X-7              
1 51065U 22002CK  23161.15869221  .00012021  00000+0  44188-3 0  9993
2 51065  97.4383 229.6323 0005784 258.8776 101.1813 15.28034578 77762
FLOCK 4X-14             
1 51066U 22002CL  23161.15677884  .00012329  00000+0  45180-3 0  9990
2 51066  97.4421 229.8552 0006100 260.2475  99.8076 15.28130481 77762
DEWASAT-1               
1 51067U 22002CM  23161.73067036  .00013689  00000+0  60675-3 0  9993
2 51067  97.4365 227.7530 0005341 275.1734  84.8893 15.21719558 77708
TEVEL-2                 
1 51069U 22002CP  23161.75052415  .00018015  00000+0  72672-3 0  9990
2 51069  97.4327 228.7322 0006576 247.1902 112.8641 15.24844740 77781
ICEYE-X14               
1 51070U 22002CQ  23161.75806536  .00012732  00000+0  54991-3 0  9997
2 51070  97.4402 228.7979 0008614 255.0685 104.9598 15.22598317 77761
CAPELLA-8-WHITNEY       
1 51071U 22002CR  23161.43683815  .00128943  00000+0  26824-2 0  9991
2 51071  97.4338 230.4367 0007126 230.0494 130.0129 15.45122670 77848
CAPELLA-7-WHITNEY       
1 51072U 22002CS  23161.19076551  .00090876  00000+0  19455-2 0  9993
2 51072  97.4343 229.9952 0006667 223.9527 136.1192 15.44430730 77794
DELFI-PQ                
1 51074U 22002CU  23161.15852675  .00038640  00000+0  11194-2 0  9993
2 51074  97.4588 233.3641 0008409 269.3848  90.6432 15.35430846 77921
USA 320                 
1 51075U 22002CV  23161.33776617  .00017833  00000+0  10211-2 0  9995
2 51075  97.4480 225.8089 0003844 123.8161 236.3436 15.12676981 77510
HADES                   
1 51080U 22002DA  23161.18224104  .00020929  00000+0  75660-3 0  9993
2 51080  97.4600 231.8979 0009010 281.6951  78.3278 15.28437109 77822
EASAT-2                 
1 51081U 22002DB  23161.62911716  .00020372  00000+0  73249-3 0  9998
2 51081  97.4597 232.3180 0009307 278.8029  81.2156 15.28618150 77893
DODONA                  
1 51084U 22002DE  23161.43937358  .00021660  00000+0  80739-3 0  9993
2 51084  97.4393 229.8766 0004674 235.3277 124.7522 15.27447368 77807
VZLUSAT-2               
1 51085U 22002DF  23161.73060346  .00007871  00000+0  39465-3 0  9999
2 51085  97.4380 226.6868 0011519 274.6668  85.3250 15.17555074 77621
LABSAT                  
1 51086U 22002DG  23161.46016475  .00016529  00000+0  67260-3 0  9998
2 51086  97.4322 228.7606 0004869 234.6618 125.4165 15.24578044 77768
STORK-1                 
1 51087U 22002DH  23161.62969600  .00022796  00000+0  86941-3 0  9994
2 51087  97.4457 229.3968 0009094 258.1518 101.8701 15.26650605 77761
STORK-2                 
1 51088U 22002DJ  23161.71252390  .00021934  00000+0  81439-3 0  9996
2 51088  97.4341 229.5664 0006656 233.1812 126.8817 15.27565069 77833
SW1FT                   
1 51089U 22002DK  23161.69278575  .00022845  00000+0  85593-3 0  9994
2 51089  97.4353 229.3189 0006525 249.1571 110.8970 15.27258012 77808
TECHEDSAT 13            
1 51095U 22003B   23161.37647660  .00019242  00000+0  55857-3 0  9999
2 51095  44.9935 276.3336 0006250 325.9496  34.0988 15.35250285 78314
GEARRS-3                
1 51097U 22003D   23161.65997344  .00017158  00000+0  50523-3 0  9998
2 51097  44.9569 273.3079 0007732 321.1961  38.8368 15.34861975 78363
STORK-3                 
1 51098U 22003E   23161.66836975  .00115730  00000+0  13599-2 0  9998
2 51098  44.9578 244.0204 0016695 351.5775   8.4837 15.60234768 78713
STEAMSAT-2              
1 51099U 22003F   23161.43635356  .00065623  00000+0  96063-3 0  9997
2 51099  44.9384 250.4151 0015187 340.4736  19.5574 15.54645012 78611
SHIYAN 13 (SY-13)       
1 51102U 22004A   23161.70158510  .00000369  00000+0  13790-3 0  9997
2 51102  98.5868 216.3858 0502344 113.9423 251.5177 13.83975653 71915
STARLINK-3366           
1 51104U 22005A   23161.26867979  .00001471  00000+0  11049-3 0  9997
2 51104  53.2165 113.6517 0001210  79.9406 280.1723 15.08842544 77398
STARLINK-3350           
1 51105U 22005B   23161.30915926  .00001689  00000+0  12414-3 0  9997
2 51105  53.2168 113.4669 0001180 104.9866 255.1256 15.08842417 77407
STARLINK-3176           
1 51106U 22005C   23161.15460324  .00000101  00000+0  24432-4 0  9990
2 51106  53.2150 114.1645 0001324  91.5002 268.6141 15.08833833 77374
STARLINK-3368           
1 51107U 22005D   23161.28615904  .00000349  00000+0  40012-4 0  9997
2 51107  53.2167 123.5595 0001219  87.6593 272.4539 15.08840662 77265
STARLINK-3362           
1 51108U 22005E   23161.23924598  .00000361  00000+0  40742-4 0  9999
2 51108  53.2165 113.7835 0001241  81.5298 278.5835 15.08833330 77396
STARLINK-3358           
1 51109U 22005F   23161.59348532  .00002150  00000+0  15320-3 0  9998
2 51109  53.2169 112.1951 0001239  93.5233 266.5901 15.08826546 78553
STARLINK-3344           
1 51110U 22005G   23161.56404647  .00000216  00000+0  31679-4 0  9994
2 51110  53.2171 112.3550 0001339 103.7288 256.3853 15.08832369 77440
STARLINK-3173           
1 51111U 22005H   23161.27235831  .00000980  00000+0  79633-4 0  9990
2 51111  53.2155 113.6345 0001166  75.5112 284.6009 15.08840675 77399
STARLINK-3374           
1 51112U 22005J   23161.55940288 -.00000522  00000+0 -14698-4 0  9995
2 51112  53.2166 112.3481 0001176  90.2538 269.8589 15.08834912 77447
STARLINK-3372           
1 51113U 22005K   23161.28340311  .00002055  00000+0  14719-3 0  9991
2 51113  53.2142 113.5860 0001402  87.2663 272.8490 15.08829134 77392
STARLINK-3375           
1 51114U 22005L   23161.56676520 -.00000167  00000+0  76029-5 0  9994
2 51114  53.2160 112.3134 0001184  92.5775 267.5353 15.08835669 77449
STARLINK-3397           
1 51115U 22005M   23161.73972331 -.00000755  00000+0 -29327-4 0  9995
2 51115  53.2161 111.5344 0001213 102.8431 257.2697 15.08838781 78572
STARLINK-3243           
1 51116U 22005N   23161.55299694  .00000015  00000+0  19050-4 0  9999
2 51116  53.2158 112.3459 0001051  85.8423 274.2689 15.08836773 77439
STARLINK-3391           
1 51117U 22005P   23161.25859455  .00000852  00000+0  71588-4 0  9997
2 51117  53.2162 113.6665 0001242  84.4790 275.6344 15.08839347 77390
STARLINK-3394           
1 51118U 22005Q   23161.27971843  .00000392  00000+0  42735-4 0  9997
2 51118  53.2166 113.6026 0001186  92.9131 267.1997 15.08839592 77398
STARLINK-3390           
1 51119U 22005R   23161.25764456  .00000506  00000+0  49909-4 0  9993
2 51119  53.2157 113.7002 0001249  93.4082 266.7053 15.08835204 77399
STARLINK-3398           
1 51120U 22005S   23161.58148289  .00000081  00000+0  23156-4 0  9995
2 51120  53.2170 112.2439 0001080  90.4663 269.6453 15.08839250 78559
STARLINK-3399           
1 51121U 22005T   23161.26595907 -.00000133  00000+0  97432-5 0  9992
2 51121  53.2156 113.6735 0001073  92.0784 268.0331 15.08839248 77398
STARLINK-3373           
1 51122U 22005U   23161.65236378  .00000439  00000+0  45648-4 0  9999
2 51122  53.2172 111.9354 0001035  79.3171 280.7938 15.08831470 78564
STARLINK-3392           
1 51123U 22005V   23160.91540783 -.00000397  00000+0 -68450-5 0  9998
2 51123  53.2172 115.2353 0001121  98.6119 261.5000 15.08831716 77348
STARLINK-3389           
1 51124U 22005W   23161.28983705  .00000736  00000+0  64338-4 0  9990
2 51124  53.2162 123.5558 0001251  86.4197 273.6938 15.08844288 77265
STARLINK-3387           
1 51125U 22005X   23161.27976062  .00000143  00000+0  27085-4 0  9998
2 51125  53.2164 123.6104 0001125  88.8339 271.2782 15.08838072 77243
STARLINK-3386           
1 51126U 22005Y   23161.28712343 -.00000101  00000+0  11730-4 0  9995
2 51126  53.2159 123.5791 0001221  84.9602 275.1530 15.08834067 77262
STARLINK-3370           
1 51127U 22005Z   23161.21719985  .00000304  00000+0  37203-4 0  9995
2 51127  53.2163 123.8918 0001222  90.7578 269.3554 15.08838774 77248
STARLINK-3400           
1 51128U 22005AA  23161.19784354 -.00000067  00000+0  13894-4 0  9992
2 51128  53.2162 123.9692 0001152  91.6324 268.4801 15.08833615 77232
STARLINK-3396           
1 51129U 22005AB  23161.29079596  .00000854  00000+0  71768-4 0  9996
2 51129  53.2160 123.5532 0001671  93.4856 266.6328 15.08842951 77255
